NORAD_CAT_ID,OBJECT_NAME,OBJECT_TYPE,EPOCH,MEAN_MOTION,ECCENTRICITY,INCLINATION,RA_OF_ASC_NODE,ARG_OF_PERICENTER,MEAN_ANOMALY,BSTAR,MEAN_MOTION_DOT,MEAN_MOTION_DDOT,TLE_LINE0,TLE_LINE1,TLE_LINE2,SEMIMAJOR_AXIS,PERIOD,APOGEE,PERIGEE,DECAYED
55954.0,STARLINK-5892,PAYLOAD,2023-12-01 23:46:44,14.98331311,0.0002616,70.0,193.8372,263.8739,96.2122,-4.6677e-06,-1.49e-06,0.0,0 STARLINK-5892,1 55954U 23037AS  23335.99079815 -.00000149  00000-0 -46677-5 0  9998,2 55954  70.0000 193.8372 0002616 263.8739  96.2122 14.98331311 40687,6950.189,96.107,573.872,570.236,0.0
55954.0,STARLINK-5892,PAYLOAD,2023-12-02 01:22:52,14.98332389,0.0002677,70.0,193.6685,260.704,99.3816,2.1584e-05,1.65e-06,0.0,0 STARLINK-5892,1 55954U 23037AS  23336.05755609  .00000165  00000-0  21584-4 0  9993,2 55954  70.0000 193.6685 0002677 260.7040  99.3816 14.98332389 40354,6950.186,96.107,573.911,570.19,0.0
55954.0,STARLINK-5892,PAYLOAD,2023-12-02 22:12:38,14.98330632,0.0002683,69.9997,191.4804,257.6298,102.456,-0.00027512,-3.374e-05,0.0,0 STARLINK-5892,1 55954U 23037AS  23336.92544315 -.00003374  00000-0 -27512-3 0  9992,2 55954  69.9997 191.4804 0002683 257.6298 102.4560 14.98330632 40487,6950.191,96.107,573.921,570.191,0.0
55954.0,STARLINK-5892,PAYLOAD,2023-12-02 23:48:46,14.98329232,0.0002843,69.9998,191.3122,262.9667,97.1169,-0.0002387,-2.94e-05,0.0,0 STARLINK-5892,1 55954U 23037AS  23336.99220316 -.00002940  00000-0 -23870-3 0  9992,2 55954  69.9998 191.3122 0002843 262.9667  97.1169 14.98329232 40835,6950.195,96.107,574.036,570.084,0.0
55954.0,STARLINK-5892,PAYLOAD,2023-12-03 20:38:31,14.98319684,0.0002828,69.999,189.1237,262.1092,97.9746,-9.195e-05,-1.19e-05,0.0,0 STARLINK-5892,1 55954U 23037AS  23337.86009197 -.00001190  00000-0 -91950-4 0  9992,2 55954  69.9990 189.1237 0002828 262.1092  97.9746 14.98319684 40969,6950.225,96.108,574.055,570.124,0.0
55954.0,STARLINK-5892,PAYLOAD,2023-12-03 23:50:48,14.98317577,0.0002721,69.9994,188.7865,255.8738,104.2118,-5.9558e-05,-8.03e-06,0.0,0 STARLINK-5892,1 55954U 23037AS  23337.99361305 -.00000803  00000-0 -59558-4 0  9996,2 55954  69.9994 188.7865 0002721 255.8738 104.2118 14.98317577 40642,6950.231,96.108,573.987,570.205,0.0
55954.0,STARLINK-5892,PAYLOAD,2023-12-04 23:52:48,14.98323278,0.0002885,69.9988,186.2619,262.4912,97.592,6.4727e-05,6.79e-06,0.0,0 STARLINK-5892,1 55954U 23037AS  23338.99501122  .00000679  00000-0  64727-4 0  9993,2 55954  69.9988 186.2619 0002885 262.4912  97.5920 14.98323278 41139,6950.214,96.107,574.084,570.074,0.0
55954.0,STARLINK-5892,PAYLOAD,2023-12-05 23:54:49,14.98330047,0.0002949,69.9986,183.7368,265.8443,94.2379,0.00012752,1.429e-05,0.0,0 STARLINK-5892,1 55954U 23037AS  23339.99640709  .00001429  00000-0  12752-3 0  9993,2 55954  69.9986 183.7368 0002949 265.8443  94.2379 14.98330047 41287,6950.193,96.107,574.107,570.008,0.0
55954.0,STARLINK-5892,PAYLOAD,2023-12-06 22:20:42,14.98334393,0.0002815,69.9987,181.3804,264.6613,95.4225,0.00010519,1.162e-05,0.0,0 STARLINK-5892,1 55954U 23037AS  23340.93104282  .00001162  00000-0  10519-3 0  9993,2 55954  69.9987 181.3804 0002815 264.6613  95.4225 14.98334393 41084,6950.179,96.107,574.001,570.088,0.0
55954.0,STARLINK-5892,PAYLOAD,2023-12-06 23:56:50,14.98339151,0.0002932,69.9995,181.2124,267.6656,92.4168,3.5029e-05,3.25e-06,0.0,0 STARLINK-5892,1 55954U 23037AS  23340.99780143  .00000325  00000-0  35029-4 0  9999,2 55954  69.9995 181.2124 0002932 267.6656  92.4168 14.98339151 41436,6950.165,96.106,574.067,569.992,0.0
55954.0,STARLINK-5892,PAYLOAD,2023-12-07 12:45:54,14.98329638,0.0002728,69.9988,179.866,263.4914,96.5935,2.3369e-05,1.86e-06,0.0,0 STARLINK-5892,1 55954U 23037AS  23341.53188607  .00000186  00000-0  23369-4 0  9996,2 55954  69.9988 179.8660 0002728 263.4914  96.5935 14.98329638 41177,6950.194,96.107,573.955,570.163,0.0
55954.0,STARLINK-5892,PAYLOAD,2023-12-07 23:58:51,14.98334436,0.0002806,70.0,178.6911,274.8015,85.2824,-7.3551e-05,-9.71e-06,0.0,0 STARLINK-5892,1 55954U 23037AS  23341.99920495 -.00000971  00000-0 -73551-4 0  9997,2 55954  70.0000 178.6911 0002806 274.8015  85.2824 14.98334436 41248,6950.179,96.107,573.994,570.094,0.0
55954.0,STARLINK-5892,PAYLOAD,2023-12-09 22:26:45,14.98328277,0.0002806,70.0005,173.8078,268.7519,91.3318,-4.4029e-05,-6.18e-06,0.0,0 STARLINK-5892,1 55954U 23037AS  23343.93524410 -.00000618  00000-0 -44029-4 0  9996,2 55954  70.0005 173.8078 0002806 268.7519  91.3318 14.98328277 41539,6950.198,96.107,574.013,570.113,0.0
55954.0,STARLINK-5892,PAYLOAD,2023-12-10 14:28:05,14.98331402,0.0002871,70.0004,172.1245,268.2353,91.8477,-2.2093e-05,-3.57e-06,0.0,0 STARLINK-5892,1 55954U 23037AS  23344.60283992 -.00000357  00000-0 -22093-4 0  9995,2 55954  70.0004 172.1245 0002871 268.2353  91.8477 14.98331402 41635,6950.189,96.107,574.049,570.058,0.0
55954.0,STARLINK-5892,PAYLOAD,2023-12-10 22:28:45,14.98329343,0.0002867,69.9988,171.2816,268.6178,91.4652,2.958e-05,2.6e-06,0.0,0 STARLINK-5892,1 55954U 23037AS  23344.93663982  .00000260  00000-0  29580-4 0  9991,2 55954  69.9988 171.2816 0002867 268.6178  91.4652 14.98329343 41688,6950.195,96.107,574.053,570.067,0.0
55954.0,STARLINK-5892,PAYLOAD,2023-12-11 14:30:06,14.98331762,0.0002868,69.9988,169.5981,269.195,90.8881,2.5853e-05,2.15e-06,0.0,0 STARLINK-5892,1 55954U 23037AS  23345.60423827  .00000215  00000-0  25853-4 0  9997,2 55954  69.9988 169.5981 0002868 269.1950  90.8881 14.98331762 41782,6950.187,96.107,574.046,570.059,0.0
55954.0,STARLINK-5892,PAYLOAD,2023-12-11 22:30:46,14.98332495,0.0002838,69.9988,168.7565,268.8359,91.2474,2.8424e-05,2.46e-06,0.0,0 STARLINK-5892,1 55954U 23037AS  23345.93803721  .00000246  00000-0  28424-4 0  9999,2 55954  69.9988 168.7565 0002838 268.8359  91.2474 14.98332495 41830,6950.185,96.107,574.023,570.078,0.0
55954.0,STARLINK-5892,PAYLOAD,2023-12-12 14:32:07,14.98330587,0.0002777,69.9989,167.0736,264.3222,95.762,-7.2344e-07,-1.02e-06,0.0,0 STARLINK-5892,1 55954U 23037AS  23346.60563810 -.00000102  00000-0 -72344-6 0  9991,2 55954  69.9989 167.0736 0002777 264.3222  95.7620 14.98330587 41938,6950.191,96.107,573.986,570.126,0.0
55954.0,STARLINK-5892,PAYLOAD,2023-12-12 20:56:39,14.98329928,0.0002803,69.9989,166.4003,264.5159,95.568,-9.7555e-06,-2.09e-06,0.0,0 STARLINK-5892,1 55954U 23037AS  23346.87267857 -.00000209  00000-0 -97555-5 0  9990,2 55954  69.9989 166.4003 0002803 264.5159  95.5680 14.98329928 41974,6950.193,96.107,574.006,570.11,0.0
55954.0,STARLINK-5892,PAYLOAD,2023-12-13 14:34:07,14.98332991,0.0002809,69.9988,164.5488,264.8964,95.1875,-8.8152e-06,-1.98e-06,0.0,0 STARLINK-5892,1 55954U 23037AS  23347.60703553 -.00000198  00000-0 -88152-5 0  9990,2 55954  69.9988 164.5488 0002809 264.8964  95.1875 14.98332991 42081,6950.184,96.107,574.001,570.096,0.0
55954.0,STARLINK-5892,PAYLOAD,2023-12-13 19:22:32,14.98332922,0.000281,69.9988,164.0437,263.5117,96.5722,-8.2102e-06,-1.91e-06,0.0,0 STARLINK-5892,1 55954U 23037AS  23347.80731503 -.00000191  00000-0 -82102-5 0  9990,2 55954  69.9988 164.0437 0002810 263.5117  96.5722 14.98332922 42459,6950.184,96.107,574.002,570.096,0.0
55954.0,STARLINK-5892,PAYLOAD,2023-12-13 20:58:40,14.98333313,0.0002806,69.9988,163.8754,263.2675,96.8165,-3.746e-06,-1.38e-06,0.0,0 STARLINK-5892,1 55954U 23037AS  23347.87407449 -.00000138  00000-0 -37460-5 0  9994,2 55954  69.9988 163.8754 0002806 263.2675  96.8165 14.98333313 42122,6950.183,96.107,573.998,570.097,0.0
55954.0,STARLINK-5892,PAYLOAD,2023-12-14 14:36:08,14.98327874,0.0002771,69.9988,162.0239,262.987,97.0974,-1.2521e-05,-2.42e-06,0.0,0 STARLINK-5892,1 55954U 23037AS  23348.60843746 -.00000242  00000-0 -12521-4 0  9996,2 55954  69.9988 162.0239 0002771 262.9870  97.0974 14.98327874 42233,6950.199,96.107,573.99,570.139,0.0
55954.0,STARLINK-5892,PAYLOAD,2023-12-14 21:00:41,14.98327529,0.0002779,69.9987,161.3504,263.1008,96.9835,-1.6112e-05,-2.85e-06,0.0,0 STARLINK-5892,1 55954U 23037AS  23348.87547798 -.00000285  00000-0 -16112-4 0  9990,2 55954  69.9987 161.3504 0002779 263.1008  96.9835 14.98327529 42616,6950.201,96.107,573.997,570.134,0.0
55954.0,STARLINK-5892,PAYLOAD,2023-12-15 14:38:10,14.98327625,0.0002708,69.9988,159.4987,259.8239,100.2615,-3.4117e-05,-5e-06,0.0,0 STARLINK-5892,1 55954U 23037AS  23349.60983903 -.00000500  00000-0 -34117-4 0  9999,2 55954  69.9988 159.4987 0002708 259.8239 100.2615 14.98327625 42386,6950.2,96.107,573.947,570.183,0.0
55954.0,STARLINK-5892,PAYLOAD,2023-12-15 21:02:42,14.98326573,0.0002715,69.9989,158.8257,260.3478,99.7375,-4.2827e-05,-6.04e-06,0.0,0 STARLINK-5892,1 55954U 23037AS  23349.87688041 -.00000604  00000-0 -42827-4 0  9995,2 55954  69.9989 158.8257 0002715 260.3478  99.7375 14.98326573 42421,6950.203,96.107,573.955,570.182,0.0
55954.0,STARLINK-5892,PAYLOAD,2023-12-16 14:40:10,14.98328757,0.0002841,69.9986,156.9737,266.2525,93.8309,2.4215e-05,1.96e-06,0.0,0 STARLINK-5892,1 55954U 23037AS  23350.61123777  .00000196  00000-0  24215-4 0  9994,2 55954  69.9986 156.9737 0002841 266.2525  93.8309 14.98328757 42538,6950.197,96.107,574.036,570.087,0.0
55954.0,STARLINK-5892,PAYLOAD,2023-12-16 21:04:43,14.98329742,0.0002825,69.9987,156.3008,266.0742,94.0094,3.4462e-05,3.18e-06,0.0,0 STARLINK-5892,1 55954U 23037AS  23350.87827698  .00000318  00000-0  34462-4 0  9996,2 55954  69.9987 156.3008 0002825 266.0742  94.0094 14.98329742 42578,6950.194,96.107,574.022,570.095,0.0
55954.0,STARLINK-5892,PAYLOAD,2023-12-17 14:42:11,14.98330477,0.0002882,69.9988,154.4494,267.4385,92.6444,3.8364e-05,3.65e-06,0.0,0 STARLINK-5892,1 55954U 23037AS  23351.61263628  .00000365  00000-0  38364-4 0  9993,2 55954  69.9988 154.4494 0002882 267.4385  92.6444 14.98330477 42680,6950.191,96.107,574.059,570.053,0.0
55954.0,STARLINK-5892,PAYLOAD,2023-12-17 21:06:43,14.98333008,0.0002818,69.9989,153.7764,265.4477,94.636,6.6366e-05,6.99e-06,0.0,0 STARLINK-5892,1 55954U 23037AS  23351.87967347  .00000699  00000-0  66366-4 0  9993,2 55954  69.9989 153.7764 0002818 265.4477  94.6360 14.98333008 42729,6950.184,96.107,574.007,570.09,0.0
